[{"OBJECT_NAME":"FLOCK 4G-5","OBJECT_ID":"2025-009BG","EPOCH":"2026-03-09T10:57:11.608704","MEAN_MOTION":15.28679529,"ECCENTRICITY":0.00020946,"INCLINATION":97.4058,"RA_OF_ASC_NODE":151.2478,"ARG_OF_PERICENTER":314.5072,"MEAN_ANOMALY":45.5996,"EPHEMERIS_TYPE":0,"CLASSIFICATION_TYPE":"U","NORAD_CAT_ID":62663,"ELEMENT_SET_NO":999,"REV_AT_EPOCH":6369,"BSTAR":0.00040688068,"MEAN_MOTION_DOT":0.00011278,"MEAN_MOTION_DDOT":0},{"OBJECT_NAME":"STARLINK-36113","OBJECT_ID":"2025-288Z","EPOCH":"2026-03-09T05:52:53.214240","MEAN_MOTION":15.27560673,"ECCENTRICITY":0.00010413,"INCLINATION":42.9997,"RA_OF_ASC_NODE":25.588,"ARG_OF_PERICENTER":268.0745,"MEAN_ANOMALY":91.9988,"EPHEMERIS_TYPE":0,"CLASSIFICATION_TYPE":"U","NORAD_CAT_ID":66982,"ELEMENT_SET_NO":999,"REV_AT_EPOCH":1522,"BSTAR":0.0010332646,"MEAN_MOTION_DOT":0.00028263,"MEAN_MOTION_DDOT":0}]
